[{"spaceTrack":{"CCSDS_OMM_VERS":"2.0","COMMENT":"GENERATED VIA SPACE-TRACK.ORG API","CREATION_DATE":"2021-05-12T04:44:40","ORIGINATOR":"18 SPCS","OBJECT_NAME":"STARLINK-43","OBJECT_ID":"2019-029Y","CENTER_NAME":"EARTH","REF_FRAME":"TEME","TIME_SYSTEM":"UTC","MEAN_ELEMENT_THEORY":"SGP4","EPOCH":"2021-05-11T06:29:38.178528","MEAN_MOTION":15.41755707,"ECCENTRICITY":0.0002305,"INCLINATION":53.0011,"RA_OF_ASC_NODE":56.2482,"ARG_OF_PERICENTER":109.8268,"MEAN_ANOMALY":250.2984,"EPHEMERIS_TYPE":0,"CLASSIFICATION_TYPE":"U","NORAD_CAT_ID":44257,"ELEMENT_SET_NO":999,"REV_AT_EPOCH":10928,"BSTAR":0.00055256,"MEAN_MOTION_DOT":0.00023388,"MEAN_MOTION_DDOT":0,"SEMIMAJOR_AXIS":6819.064,"PERIOD":93.4,"APOAPSIS":442.501,"PERIAPSIS":439.358,"OBJECT_TYPE":"PAYLOAD","RCS_SIZE":"LARGE","COUNTRY_CODE":"US","LAUNCH_DATE":"2019-05-24","SITE":"AFETR","DECAY_DATE":null,"DECAYED":0,"FILE":3035157,"GP_ID":177102142,"TLE_LINE0":"0 STARLINK-43","TLE_LINE1":"1 44257U 19029Y   21131.27058077  .00023388  00000-0  55256-3 0  9997","TLE_LINE2":"2 44257  53.0011  56.2482 0002305 109.8268 250.2984 15.41755707109287"},"version":"v0.9","launch":"5eb87d30ffd86e000604b378","longitude":-33.44962604734704,"latitude":50.90296473104396,"height_km":445.5136117508455,"velocity_kms":7.651758993495974,"id":"5eed7714096e590006985629"},{"spaceTrack":{"CCSDS_OMM_VERS":"2.0","COMMENT":"GENERATED VIA SPACE-TRACK.ORG API","CREATION_DATE":"2020-09-05T03:26:09","ORIGINATOR":"18 SPCS","OBJECT_NAME":"STARLINK-44","OBJECT_ID":"2019-029AC","CENTER_NAME":"EARTH","REF_FRAME":"TEME","TIME_SYSTEM":"UTC","MEAN_ELEMENT_THEORY":"SGP4","EPOCH":"2020-09-05T02:13:09.311232","MEAN_MOTION":16.35234008,"ECCENTRICITY":0.0006119,"INCLINATION":52.9831,"RA_OF_ASC_NODE":172.1242,"ARG_OF_PERICENTER":239.5454,"MEAN_ANOMALY":120.5504,"EPHEMERIS_TYPE":0,"CLASSIFICATION_TYPE":"U","NORAD_CAT_ID":44261,"ELEMENT_SET_NO":999,"REV_AT_EPOCH":7165,"BSTAR":0.0024119,"MEAN_MOTION_DOT":0.19263879,"MEAN_MOTION_DDOT":0.000012182,"SEMIMAJOR_AXIS":6556.648,"PERIOD":88.06,"APOAPSIS":182.525,"PERIAPSIS":174.501,"OBJECT_TYPE":"PAYLOAD","RCS_SIZE":"LARGE","COUNTRY_CODE":"US","LAUNCH_DATE":"2019-05-24","SITE":"AFETR","DECAY_DATE":"2020-09-05","DECAYED":1,"FILE":2814556,"GP_ID":160755906,"TLE_LINE0":"0 STARLINK-44","TLE_LINE1":"1 44261U 19029AC  20249.09246888  .19263879  12182-4  24119-2 0  9992","TLE_LINE2":"2 44261  52.9831 172.1242 0006119 239.5454 120.5504 16.35234008 71653"},"version":"v0.9","launch":"5eb87d30ffd86e000604b378","longitude":null,"latitude":null,"height_km":null,"velocity_kms":null,"id":"5eed7714096e59000698562a"},{"spaceTrack":{"CCSDS_OMM_VERS":"2.0","COMMENT":"GENERATED VIA SPACE-TRACK.ORG API","CREATION_DATE":"2020-10-15T12:16:08","ORIGINATOR":"18 SPCS","OBJECT_NAME":"STARLINK-72","OBJECT_ID":"2019-029AE","CENTER_NAME":"EARTH","REF_FRAME":"TEME","TIME_SYSTEM":"UTC","MEAN_ELEMENT_THEORY":"SGP4","EPOCH":"2020-10-15T11:24:14.113440","MEAN_MOTION":16.49183723,"ECCENTRICITY":0.000333,"INCLINATION":52.982,"RA_OF_ASC_NODE":318.7786,"ARG_OF_PERICENTER":292.8532,"MEAN_ANOMALY":67.5533,"EPHEMERIS_TYPE":0,"CLASSIFICATION_TYPE":"U","NORAD_CAT_ID":44263,"ELEMENT_SET_NO":999,"REV_AT_EPOCH":7817,"BSTAR":0.00016439,"MEAN_MOTION_DOT":0.12398314,"MEAN_MOTION_DDOT":0.000012643,"SEMIMAJOR_AXIS":6519.622,"PERIOD":87.315,"APOAPSIS":143.659,"PERIAPSIS":139.316,"OBJECT_TYPE":"PAYLOAD","RCS_SIZE":"LARGE","COUNTRY_CODE":"US","LAUNCH_DATE":"2019-05-24","SITE":"AFETR","DECAY_DATE":"2020-10-16","DECAYED":1,"FILE":2852737,"GP_ID":163509580,"TLE_LINE0":"0 STARLINK-72","TLE_LINE1":"1 44263U 19029AE  20289.47516335  .12398314  12643-4  16439-3 0  9992","TLE_LINE2":"2 44263  52.9820 318.7786 0003330 292.8532  67.5533 16.49183723 78173"},"version":"v0.9","launch":"5eb87d30ffd86e000604b378","longitude":null,"latitude":null,"height_km":null,"velocity_kms":null,"id":"5eed7714096e59000698562b"},{"spaceTrack":{"CCSDS_OMM_VERS":"2.0","COMMENT":"GENERATED VIA SPACE-TRACK.ORG API","CREATION_DATE":"2020-09-28T17:36:09","ORIGINATOR":"18 SPCS","OBJECT_NAME":"STARLINK-49","OBJECT_ID":"2019-029AD","CENTER_NAME":"EARTH","REF_FRAME":"TEME","TIME_SYSTEM":"UTC","MEAN_ELEMENT_THEORY":"SGP4","EPOCH":"2020-09-27T20:12:36.285696","MEAN_MOTION":16.23728101,"ECCENTRICITY":0.0008965,"INCLINATION":53.0037,"RA_OF_ASC_NODE":53.0192,"ARG_OF_PERICENTER":308.653,"MEAN_ANOMALY":51.7564,"EPHEMERIS_TYPE":0,"CLASSIFICATION_TYPE":"U","NORAD_CAT_ID":44262,"ELEMENT_SET_NO":999,"REV_AT_EPOCH":7533,"BSTAR":0.0027635,"MEAN_MOTION_DOT":0.07478847,"MEAN_MOTION_DDOT":0.000011984,"SEMIMAJOR_AXIS":6587.586,"PERIOD":88.684,"APOAPSIS":215.356,"PERIAPSIS":203.545,"OBJECT_TYPE":"PAYLOAD","RCS_SIZE":"LARGE","COUNTRY_CODE":"US","LAUNCH_DATE":"2019-05-24","SITE":"AFETR","DECAY_DATE":"2020-09-29","DECAYED":1,"FILE":2837054,"GP_ID":162370859,"TLE_LINE0":"0 STARLINK-49","TLE_LINE1":"1 44262U 19029AD  20271.84208664  .07478847  11984-4  27635-2 0  9996","TLE_LINE2":"2 44262  53.0037  53.0192 0008965 308.6530  51.7564 16.23728101 75338"},"version":"v0.9","launch":"5eb87d30ffd86e000604b378","longitude":null,"latitude":null,"height_km":null,"velocity_kms":null,"id":"5eed7714096e59000698562c"},{"spaceTrack":{"CCSDS_OMM_VERS":"2.0","COMMENT":"GENERATED VIA SPACE-TRACK.ORG API","CREATION_DATE":"2020-10-14T00:36:09","ORIGINATOR":"18 SPCS","OBJECT_NAME":"STARLINK-52","OBJECT_ID":"2019-029AA","CENTER_NAME":"EARTH","REF_FRAME":"TEME","TIME_SYSTEM":"UTC","MEAN_ELEMENT_THEORY":"SGP4","EPOCH":"2020-10-13T17:23:45.076992","MEAN_MOTION":16.33038265,"ECCENTRICITY":0.0006539,"INCLINATION":52.9866,"RA_OF_ASC_NODE":227.4445,"ARG_OF_PERICENTER":235.724,"MEAN_ANOMALY":124.3359,"EPHEMERIS_TYPE":0,"CLASSIFICATION_TYPE":"U","NORAD_CAT_ID":44259,"ELEMENT_SET_NO":999,"REV_AT_EPOCH":7918,"BSTAR":0.0014109,"MEAN_MOTION_DOT":0.08958567,"MEAN_MOTION_DDOT":0.000012115,"SEMIMAJOR_AXIS":6562.524,"PERIOD":88.179,"APOAPSIS":188.68,"PERIAPSIS":180.098,"OBJECT_TYPE":"PAYLOAD","RCS_SIZE":"LARGE","COUNTRY_CODE":"US","LAUNCH_DATE":"2019-05-24","SITE":"AFETR","DECAY_DATE":"2020-10-13","DECAYED":1,"FILE":2851446,"GP_ID":163426277,"TLE_LINE0":"0 STARLINK-52","TLE_LINE1":"1 44259U 19029AA  20287.72482728  .08958567  12115-4  14109-2 0  9993","TLE_LINE2":"2 44259  52.9866 227.4445 0006539 235.7240 124.3359 16.33038265 79185"},"version":"v0.9","launch":"5eb87d30ffd86e000604b378","longitude":null,"latitude":null,"height_km":null,"velocity_kms":null,"id":"5eed7714096e59000698562d"},{"spaceTrack":{"CCSDS_OMM_VERS":"2.0","COMMENT":"GENERATED VIA SPACE-TRACK.ORG API","CREATION_DATE":"2020-09-14T20:46:09","ORIGINATOR":"18 SPCS","OBJECT_NAME":"STARLINK-54","OBJECT_ID":"2019-029AH","CENTER_NAME":"EARTH","REF_FRAME":"TEME","TIME_SYSTEM":"UTC","MEAN_ELEMENT_THEORY":"SGP4","EPOCH":"2020-09-14T20:31:28.168896","MEAN_MOTION":16.52546679,"ECCENTRICITY":0.0020137,"INCLINATION":52.9827,"RA_OF_ASC_NODE":119.6547,"ARG_OF_PERICENTER":244.8039,"MEAN_ANOMALY":224.076,"EPHEMERIS_TYPE":0,"CLASSIFICATION_TYPE":"U","NORAD_CAT_ID":44266,"ELEMENT_SET_NO":999,"REV_AT_EPOCH":7318,"BSTAR":0.0001,"MEAN_MOTION_DOT":0.16097244,"MEAN_MOTION_DDOT":0.000012572,"SEMIMAJOR_AXIS":6510.774,"PERIOD":87.138,"APOAPSIS":145.75,"PERIAPSIS":119.529,"OBJECT_TYPE":"PAYLOAD","RCS_SIZE":"LARGE","COUNTRY_CODE":"US","LAUNCH_DATE":"2019-05-24","SITE":"AFETR","DECAY_DATE":"2020-09-15","DECAYED":1,"FILE":2823179,"GP_ID":161384067,"TLE_LINE0":"0 STARLINK-54","TLE_LINE1":"1 44266U 19029AH  20258.85518714  .16097244  12572-4  10000-3 0  9997","TLE_LINE2":"2 44266  52.9827 119.6547 0020137 244.8039 224.0760 16.52546679 73184"},"version":"v0.9","launch":"5eb87d30ffd86e000604b378","longitude":null,"latitude":null,"height_km":null,"velocity_kms":null,"id":"5eed7714096e59000698562e"},{"spaceTrack":{"CCSDS_OMM_VERS":"2.0","COMMENT":"GENERATED VIA SPACE-TRACK.ORG API","CREATION_DATE":"2020-10-13T16:56:09","ORIGINATOR":"18 SPCS","OBJECT_NAME":"STARLINK-63","OBJECT_ID":"2019-029AG","CENTER_NAME":"EARTH","REF_FRAME":"TEME","TIME_SYSTEM":"UTC","MEAN_ELEMENT_THEORY":"SGP4","EPOCH":"2020-10-13T16:16:39.726048","MEAN_MOTION":16.40378467,"ECCENTRICITY":0.0000578,"INCLINATION":52.9803,"RA_OF_ASC_NODE":332.3076,"ARG_OF_PERICENTER":316.8106,"MEAN_ANOMALY":43.5401,"EPHEMERIS_TYPE":0,"CLASSIFICATION_TYPE":"U","NORAD_CAT_ID":44265,"ELEMENT_SET_NO":999,"REV_AT_EPOCH":7785,"BSTAR":0.0020466,"MEAN_MOTION_DOT":0.29311092,"MEAN_MOTION_DDOT":0.000012381,"SEMIMAJOR_AXIS":6542.932,"PERIOD":87.784,"APOAPSIS":165.176,"PERIAPSIS":164.419,"OBJECT_TYPE":"PAYLOAD","RCS_SIZE":"LARGE","COUNTRY_CODE":"US","LAUNCH_DATE":"2019-05-24","SITE":"AFETR","DECAY_DATE":"2020-10-13","DECAYED":1,"FILE":2851288,"GP_ID":163381387,"TLE_LINE0":"0 STARLINK-63","TLE_LINE1":"1 44265U 19029AG  20287.67823757  .29311092  12381-4  20466-2 0  9992","TLE_LINE2":"2 44265  52.9803 332.3076 0000578 316.8106  43.5401 16.40378467 77859"},"version":"v0.9","launch":"5eb87d30ffd86e000604b378","longitude":null,"latitude":null,"height_km":null,"velocity_kms":null,"id":"5eed7714096e59000698562f"}]